[{"OBJECT_NAME":"STARLINK-6302","OBJECT_ID":"2023-061Y","EPOCH":"2026-03-09T22:00:01.999584","MEAN_MOTION":15.06824042,"ECCENTRICITY":0.00020207,"INCLINATION":42.9991,"RA_OF_ASC_NODE":183.5074,"ARG_OF_PERICENTER":276.9763,"MEAN_ANOMALY":155.4619,"EPHEMERIS_TYPE":0,"CLASSIFICATION_TYPE":"U","NORAD_CAT_ID":56396,"ELEMENT_SET_NO":999,"REV_AT_EPOCH":578,"BSTAR":0.0019317193,"MEAN_MOTION_DOT":0.00029184,"MEAN_MOTION_DDOT":0},{"OBJECT_NAME":"UNKNOWN","OBJECT_ID":"","EPOCH":"2026-03-09T06:09:07.097760","MEAN_MOTION":14.23111444,"ECCENTRICITY":0.0420074,"INCLINATION":65.7569,"RA_OF_ASC_NODE":3.5198,"ARG_OF_PERICENTER":27.821,"MEAN_ANOMALY":334.4666,"EPHEMERIS_TYPE":0,"CLASSIFICATION_TYPE":"U","NORAD_CAT_ID":87271,"ELEMENT_SET_NO":999,"REV_AT_EPOCH":62467,"BSTAR":0.002777,"MEAN_MOTION_DOT":0.00015701,"MEAN_MOTION_DDOT":0}]
